[{"OBJECT_NAME":"ZHANGHENG 1-01 (CSES-1)","OBJECT_ID":"2018-015C","EPOCH":"2026-03-09T23:37:11.256384","MEAN_MOTION":15.21039097,"ECCENTRICITY":0.00148927,"INCLINATION":97.6761,"RA_OF_ASC_NODE":232.7218,"ARG_OF_PERICENTER":243.5493,"MEAN_ANOMALY":116.4215,"EPHEMERIS_TYPE":0,"CLASSIFICATION_TYPE":"U","NORAD_CAT_ID":43194,"ELEMENT_SET_NO":999,"REV_AT_EPOCH":44956,"BSTAR":0.0005179147,"MEAN_MOTION_DOT":0.00011466,"MEAN_MOTION_DDOT":0},{"OBJECT_NAME":"TRANSPORTER-14 OBJECT E","OBJECT_ID":"2025-135E","EPOCH":"2026-03-09T20:41:00.309696","MEAN_MOTION":15.23884665,"ECCENTRICITY":0.00053958,"INCLINATION":97.4603,"RA_OF_ASC_NODE":185.3351,"ARG_OF_PERICENTER":147.6959,"MEAN_ANOMALY":212.461,"EPHEMERIS_TYPE":0,"CLASSIFICATION_TYPE":"U","NORAD_CAT_ID":64532,"ELEMENT_SET_NO":999,"REV_AT_EPOCH":3978,"BSTAR":0.0006581062,"MEAN_MOTION_DOT":0.0001584,"MEAN_MOTION_DDOT":0}]
